NORAD_CAT_ID,OBJECT_NAME,OBJECT_TYPE,EPOCH,MEAN_MOTION,ECCENTRICITY,INCLINATION,RA_OF_ASC_NODE,ARG_OF_PERICENTER,MEAN_ANOMALY,BSTAR,MEAN_MOTION_DOT,MEAN_MOTION_DDOT,TLE_LINE0,TLE_LINE1,TLE_LINE2,SEMIMAJOR_AXIS,PERIOD,APOGEE,PERIGEE,DECAYED
53184.0,STARLINK-4257,PAYLOAD,2023-11-19 08:33:39,15.08847246,0.0001541,53.2189,300.5963,93.1303,266.9865,4.4225e-05,4.16e-06,0.0,0 STARLINK-4257,1 53184U 22083BE  23323.35670220  .00000416  00000-0  44225-4 0  9996,2 53184  53.2189 300.5963 0001541  93.1303 266.9865 15.08847246 74915,6917.858,95.437,540.789,538.657,0.0
53184.0,STARLINK-4257,PAYLOAD,2023-11-20 05:13:40,15.08847153,0.0001596,53.2181,296.7308,96.3973,263.7201,-2.2262e-05,-6.42e-06,0.0,0 STARLINK-4257,1 53184U 22083BE  23324.21782411 -.00000642  00000-0 -22262-4 0  9998,2 53184  53.2181 296.7308 0001596  96.3973 263.7201 15.08847153 75674,6917.859,95.437,540.828,538.619,0.0
53184.0,STARLINK-4257,PAYLOAD,2023-11-20 22:42:55,15.08826352,0.0001415,53.2179,293.4584,98.3927,261.7226,1.2965e-05,-8.2e-07,0.0,0 STARLINK-4257,1 53184U 22083BE  23324.94647499 -.00000082  00000-0  12965-4 0  9990,2 53184  53.2179 293.4584 0001415  98.3927 261.7226 15.08826352 75158,6917.922,95.438,540.766,538.808,0.0
53184.0,STARLINK-4257,PAYLOAD,2023-11-21 03:29:04,15.08835439,0.0001424,53.2179,292.5702,94.4473,265.6682,1.7933e-05,-3e-08,0.0,0 STARLINK-4257,1 53184U 22083BE  23325.14518999 -.00000003  00000-0  17933-4 0  9998,2 53184  53.2179 292.5702 0001424  94.4473 265.6682 15.08835439 75811,6917.894,95.438,540.744,538.774,0.0
53184.0,STARLINK-4257,PAYLOAD,2023-11-21 08:15:13,15.08841924,0.0001409,53.2173,291.6767,94.7381,265.3772,4.0477e-05,3.56e-06,0.0,0 STARLINK-4257,1 53184U 22083BE  23325.34390552  .00000356  00000-0  40477-4 0  9992,2 53184  53.2173 291.6767 0001409  94.7381 265.3772 15.08841924 75217,6917.875,95.437,540.714,538.765,0.0
53184.0,STARLINK-4257,PAYLOAD,2023-11-22 03:19:51,15.08835795,0.0001457,53.2175,288.1079,97.0827,263.0331,1.1301e-05,-1.08e-06,0.0,0 STARLINK-4257,1 53184U 22083BE  23326.13879223 -.00000108  00000-0  11301-4 0  9997,2 53184  53.2175 288.1079 0001457  97.0827 263.0331 15.08835795 75967,6917.893,95.438,540.766,538.75,0.0
53184.0,STARLINK-4257,PAYLOAD,2023-11-23 03:10:38,15.08841332,0.0001477,53.2178,283.6469,92.5652,267.5509,0.00015159,2.125e-05,0.0,0 STARLINK-4257,1 53184U 22083BE  23327.13238571  .00002125  00000-0  15159-3 0  9997,2 53184  53.2178 283.6469 0001477  92.5652 267.5509 15.08841332 76119,6917.876,95.437,540.763,538.72,0.0
53184.0,STARLINK-4257,PAYLOAD,2023-11-23 07:56:46,15.08853734,0.0001316,53.2177,282.7532,105.4895,254.6243,0.00016355,2.317e-05,0.0,0 STARLINK-4257,1 53184U 22083BE  23327.33109592  .00002317  00000-0  16355-3 0  9991,2 53184  53.2177 282.7532 0001316 105.4895 254.6243 15.08853734 76148,6917.838,95.437,540.614,538.793,0.0
53184.0,STARLINK-4257,PAYLOAD,2023-11-24 03:01:26,15.08828717,0.0001798,53.2191,279.1906,73.0491,287.0698,-5.7465e-05,-1.202e-05,0.0,0 STARLINK-4257,1 53184U 22083BE  23328.12600498 -.00001202  00000-0 -57465-4 0  9992,2 53184  53.2191 279.1906 0001798  73.0491 287.0698 15.08828717 76265,6917.915,95.438,541.024,538.536,0.0
53184.0,STARLINK-4257,PAYLOAD,2023-11-24 04:36:48,15.08841885,0.0001337,53.2177,278.8913,106.3281,253.7858,5.9714e-05,6.63e-06,0.0,0 STARLINK-4257,1 53184U 22083BE  23328.19223175  .00000663  00000-0  59714-4 0  9999,2 53184  53.2177 278.8913 0001337 106.3281 253.7858 15.08841885 76279,6917.875,95.437,540.665,538.815,0.0
53184.0,STARLINK-4257,PAYLOAD,2023-11-25 02:52:13,15.08840662,0.0001342,53.2172,274.7249,103.1447,256.9695,-6.7428e-05,-1.361e-05,0.0,0 STARLINK-4257,1 53184U 22083BE  23329.11959954 -.00001361  00000-0 -67428-4 0  9992,2 53184  53.2172 274.7249 0001342 103.1447 256.9695 15.08840662 76418,6917.878,95.438,540.672,538.815,0.0
53184.0,STARLINK-4257,PAYLOAD,2023-11-25 20:21:27,15.08836994,0.0001178,53.2183,271.4603,48.3133,311.796,0.00030956,4.642e-05,0.0,0 STARLINK-4257,1 53184U 22083BE  23329.84823339  .00004642  00000-0  30956-3 0  9997,2 53184  53.2183 271.4603 0001178  48.3133 311.7960 15.08836994 75896,6917.89,95.438,540.57,538.94,0.0
53184.0,STARLINK-4257,PAYLOAD,2023-11-26 02:42:58,15.08876253,0.0001489,53.2172,270.2612,102.2379,257.878,0.00062673,9.71e-05,0.0,0 STARLINK-4257,1 53184U 22083BE  23330.11318072  .00009710  00000-0  62673-3 0  9994,2 53184  53.2172 270.2612 0001489 102.2379 257.8780 15.08876253 76565,6917.77,95.435,540.665,538.605,0.0
53184.0,STARLINK-4257,PAYLOAD,2023-11-27 02:33:47,15.08834667,0.0001577,53.2174,265.8037,98.1389,261.9782,-8.874e-05,-1.7e-05,0.0,0 STARLINK-4257,1 53184U 22083BE  23331.10679915 -.00001700  00000-0 -88740-4 0  9997,2 53184  53.2174 265.8037 0001577  98.1389 261.9782 15.08834667 76718,6917.897,95.438,540.853,538.671,0.0
53184.0,STARLINK-4257,PAYLOAD,2023-11-27 05:44:33,15.08834246,0.0001574,53.2172,265.209,126.1504,233.9634,3.8313e-05,3.22e-06,0.0,0 STARLINK-4257,1 53184U 22083BE  23331.23927687  .00000322  00000-0  38313-4 0  9991,2 53184  53.2172 265.2090 0001574 126.1504 233.9634 15.08834246 76108,6917.898,95.438,540.852,538.674,0.0
53184.0,STARLINK-4257,PAYLOAD,2023-11-28 00:49:10,15.08858619,0.000189,53.218,261.6415,123.7321,236.3851,-2.9652e-05,-7.6e-06,0.0,0 STARLINK-4257,1 53184U 22083BE  23332.03414581 -.00000760  00000-0 -29652-4 0  9998,2 53184  53.2180 261.6415 0001890 123.7321 236.3851 15.08858619 76859,6917.823,95.436,540.996,538.381,0.0
53184.0,STARLINK-4257,PAYLOAD,2023-11-28 19:53:48,15.08847403,0.0001506,53.2179,258.0729,118.9614,241.153,-6.2562e-05,-1.284e-05,0.0,0 STARLINK-4257,1 53184U 22083BE  23332.82903722 -.00001284  00000-0 -62562-4 0  9994,2 53184  53.2179 258.0729 0001506 118.9614 241.1530 15.08847403 76970,6917.858,95.437,540.765,538.681,0.0
53184.0,STARLINK-4257,PAYLOAD,2023-11-29 00:39:57,15.0885852,0.0001551,53.2182,257.1803,120.6696,239.445,-0.00015782,-2.8e-05,0.0,0 STARLINK-4257,1 53184U 22083BE  23333.02775164 -.00002800  00000-0 -15782-3 0  9990,2 53184  53.2182 257.1803 0001551 120.6696 239.4450 15.08858520 77005,6917.824,95.436,540.762,538.616,0.0
53184.0,STARLINK-4257,PAYLOAD,2023-11-29 05:26:07,15.08842103,0.0001792,53.2178,256.2873,127.0444,233.0713,0.00020352,2.953e-05,0.0,0 STARLINK-4257,1 53184U 22083BE  23333.22647293  .00002953  00000-0  20352-3 0  9999,2 53184  53.2178 256.2873 0001792 127.0444 233.0713 15.08842103 77031,6917.874,95.437,540.979,538.499,0.0
53184.0,STARLINK-4257,PAYLOAD,2023-11-30 02:06:08,15.08841847,0.0001631,53.2188,252.4231,94.3466,265.7713,4.4693e-06,-2.17e-06,0.0,0 STARLINK-4257,1 53184U 22083BE  23334.08760330 -.00000217  00000-0  44693-5 0  9990,2 53184  53.2188 252.4231 0001631  94.3466 265.7713 15.08841847 77160,6917.875,95.437,540.868,538.611,0.0
53184.0,STARLINK-4257,PAYLOAD,2023-12-01 03:32:20,15.08827689,0.0001568,53.2185,247.6642,98.2139,261.9031,-5.8607e-05,-1.22e-05,0.0,0 STARLINK-4257,1 53184U 22083BE  23335.14745907 -.00001220  00000-0 -58607-4 0  9996,2 53184  53.2185 247.6642 0001568  98.2139 261.9031 15.08827689 77325,6917.918,95.438,540.868,538.698,0.0
53184.0,STARLINK-4257,PAYLOAD,2023-12-01 22:36:56,15.08851443,0.0001995,53.219,244.0987,58.4907,301.6279,0.00019239,2.776e-05,0.0,0 STARLINK-4257,1 53184U 22083BE  23335.94231872  .00002776  00000-0  19239-3 0  9997,2 53184  53.2190 244.0987 0001995  58.4907 301.6279 15.08851443 76813,6917.845,95.437,541.091,538.33,0.0
53184.0,STARLINK-4257,PAYLOAD,2023-12-02 00:12:17,15.08879706,0.0001635,53.218,243.8018,95.4537,264.6642,0.00039525,6.015e-05,0.0,0 STARLINK-4257,1 53184U 22083BE  23336.00853357  .00006015  00000-0  39525-3 0  9993,2 53184  53.2180 243.8018 0001635  95.4537 264.6642 15.08879706 77450,6917.759,95.435,540.755,538.493,0.0
53184.0,STARLINK-4257,PAYLOAD,2023-12-02 03:23:02,15.08889205,0.0001501,53.2179,243.2059,80.4066,279.7096,0.00046232,7.087e-05,0.0,0 STARLINK-4257,1 53184U 22083BE  23336.14100380  .00007087  00000-0  46232-3 0  9992,2 53184  53.2179 243.2059 0001501  80.4066 279.7096 15.08889205 77477,6917.73,95.434,540.633,538.557,0.0
53184.0,STARLINK-4257,PAYLOAD,2023-12-02 22:27:44,15.08826059,0.0001542,53.2179,239.6371,86.7357,273.3812,6.3492e-05,7.22e-06,0.0,0 STARLINK-4257,1 53184U 22083BE  23336.93593222  .00000722  00000-0  63492-4 0  9997,2 53184  53.2179 239.6371 0001542  86.7357 273.3812 15.08826059 76967,6917.923,95.438,540.855,538.721,0.0
53184.0,STARLINK-4257,PAYLOAD,2023-12-03 03:13:53,15.08829008,0.0001461,53.2177,238.744,99.2033,260.9125,5.8531e-05,6.43e-06,0.0,0 STARLINK-4257,1 53184U 22083BE  23337.13465062  .00000643  00000-0  58531-4 0  9990,2 53184  53.2177 238.7440 0001461  99.2033 260.9125 15.08829008 77622,6917.914,95.438,540.79,538.768,0.0
53184.0,STARLINK-4257,PAYLOAD,2023-12-03 20:43:08,15.08850934,0.0002006,53.218,235.4723,137.4575,222.6573,-0.00038354,-6.389e-05,0.0,0 STARLINK-4257,1 53184U 22083BE  23337.86329138 -.00006389  00000-0 -38354-3 0  9998,2 53184  53.2180 235.4723 0002006 137.4575 222.6573 15.08850934 77732,6917.847,95.437,541.1,538.324,0.0
53184.0,STARLINK-4257,PAYLOAD,2023-12-04 03:04:40,15.08852393,0.00016,53.218,234.2812,87.8663,272.2512,-0.00031524,-5.303e-05,0.0,0 STARLINK-4257,1 53184U 22083BE  23338.12824966 -.00005303  00000-0 -31524-3 0  9994,2 53184  53.2180 234.2812 0001600  87.8663 272.2512 15.08852393 77143,6917.843,95.437,540.814,538.601,0.0
53184.0,STARLINK-4257,PAYLOAD,2023-12-04 17:23:08,15.08835131,0.0001593,53.2178,231.6066,108.0145,252.102,0.00013066,1.792e-05,0.0,0 STARLINK-4257,1 53184U 22083BE  23338.72440547  .00001792  00000-0  13066-3 0  9996,2 53184  53.2178 231.6066 0001593 108.0145 252.1020 15.08835131 77236,6917.895,95.438,540.862,538.658,0.0
53184.0,STARLINK-4257,PAYLOAD,2023-12-05 02:55:26,15.08842702,0.0001607,53.2178,229.8222,103.5194,256.5977,0.0001792,2.565e-05,0.0,0 STARLINK-4257,1 53184U 22083BE  23339.12183984  .00002565  00000-0  17920-3 0  9992,2 53184  53.2178 229.8222 0001607 103.5194 256.5977 15.08842702 77926,6917.872,95.437,540.849,538.625,0.0
